[{"OBJECT_NAME":"STARLINK-30377","OBJECT_ID":"2023-138T","EPOCH":"2026-03-09T22:00:01.999584","MEAN_MOTION":15.26711923,"ECCENTRICITY":0.00015027,"INCLINATION":43.0001,"RA_OF_ASC_NODE":232.5966,"ARG_OF_PERICENTER":275.153,"MEAN_ANOMALY":189.4668,"EPHEMERIS_TYPE":0,"CLASSIFICATION_TYPE":"U","NORAD_CAT_ID":57825,"ELEMENT_SET_NO":999,"REV_AT_EPOCH":543,"BSTAR":0.003222673,"MEAN_MOTION_DOT":0.00087137,"MEAN_MOTION_DDOT":0},{"OBJECT_NAME":"SPIP","OBJECT_ID":"2023-174AU","EPOCH":"2026-03-09T22:52:46.383168","MEAN_MOTION":15.26695413,"ECCENTRICITY":0.00100427,"INCLINATION":97.3901,"RA_OF_ASC_NODE":146.4534,"ARG_OF_PERICENTER":168.1112,"MEAN_ANOMALY":192.0366,"EPHEMERIS_TYPE":0,"CLASSIFICATION_TYPE":"U","NORAD_CAT_ID":58298,"ELEMENT_SET_NO":999,"REV_AT_EPOCH":12963,"BSTAR":0.00025731582,"MEAN_MOTION_DOT":6.692e-5,"MEAN_MOTION_DDOT":0}]
